#aV2021  1 19  0  0  0.00000000     288 DD+AD WGS84 FIT  NGA
## 2141 172800.00000000   300.00000000 59233 0.0000000000000
+   32     1  2  3  4  5  6  7  8  9 10 11 12 13 14 15 16 17
+         18 19 20 21 22 23 24 25 26 27 28 29 30 31 32  0  0
+          0  0  0  0  0  0  0  0  0  0  0  0  0  0  0  0  0
+          0  0  0  0  0  0  0  0  0  0  0  0  0  0  0  0  0
+          0  0  0  0  0  0  0  0  0  0  0  0  0  0  0  0  0
++         2  2  2  2  2  2  2  2  2  2  2  2  2  2  2  2  2
++         2  2  2  2  2  2  2  2  2  2  2  2  2  2  2  0  0
++         0  0  0  0  0  0  0  0  0  0  0  0  0  0  0  0  0
++         0  0  0  0  0  0  0  0  0  0  0  0  0  0  0  0  0
++         0  0  0  0  0  0  0  0  0  0  0  0  0  0  0  0  0
%c cc cc ccc ccc cccc cccc cccc cccc ccccc ccccc ccccc ccccc
%c cc cc ccc ccc cccc cccc cccc cccc ccccc ccccc ccccc ccccc
%f  0.0000000  0.000000000  0.00000000000  0.000000000000000
%f  0.0000000  0.000000000  0.00000000000  0.000000000000000
%i    0    0    0    0      0      0      0      0         0
%i    0    0    0    0      0      0      0      0         0
/*      NGA, ST. LOUIS,MO.                                  
/*   EPHEMERIS COMPUTED FROM 2 DAYS OF DATA                 
/*   EPOCHA v5 SMOOTHER                                     
/*   G2139 IERS2010 SATAF SATAPC                            
*  2021  1 19 19  5  0.00000000
P  1 -12999.163124 -13531.730163 -19173.415641    777.355623                    
V  1  23673.924964    492.787477 -16279.935759     -0.066436                    
P  2 -11513.519658  14200.789018  19931.426506   -567.769707                    
V  2 -23908.329737   -468.070088 -13934.385520     -0.041516                    
P  3 -13140.508545 -23084.853680   1602.256107    -60.550581                    
V  3   1242.963788  -3029.844105 -31768.961003     -0.098980                    
P  4  -4431.851290 -17533.073316  19436.999842   -173.979801                    
V  4  15091.233156 -19590.161653 -14281.908839     -0.029157                    
P  5   -261.271217  21561.708749  15236.542421    -31.421954                    
V  5 -11632.046067 -16067.644525  22495.561540     -0.010059                    
P  6 -23407.325428   6238.176892  11012.863194     -4.463320                    
V  6 -13736.604002  -2458.577646 -27919.318612      0.003489                    
P  7 -24675.016648  -7122.935704   8029.591168     27.732500                    
V  7   9752.738215  -1884.175055  29041.569955      0.141915                    
P  8   1635.099772 -21898.343843 -14721.161976     -7.202048                    
V  8  11677.513784 -14892.310884  23723.235235     -0.013758                    
P  9 -14016.451189  -6451.895600  21554.464622   -314.447044                    
V  9  14311.793115 -23541.175342   2231.641988     -0.039535                    
P 10  16378.851765    413.516866 -20854.846103    -42.809032                    
V 10  11691.460142  23944.811466   9348.448426     -0.084280                    
P 11  -3159.312888 -16463.187302 -21092.340093    -48.467111                    
V 11  23694.196977 -10517.163483   4390.934526      0.105873                    
P 12   9146.985414  24954.118472  -2117.416535     10.701468                    
V 12  -2960.077695  -1315.722346 -31828.367853     -0.052355                    
P 13 -11899.860643  22411.945904  -7770.385119     87.694730                    
V 13  -8166.859259   5810.162644  29905.737051      0.041734                    
P 14 -16910.624543  -2669.141833 -20317.002684     87.852765                    
V 14  -9829.069480 -23857.835367  11314.071439      0.054385                    
P 15   2061.946195  21690.233525 -15303.854381   -175.214134                    
V 15 -10939.980172  15836.628431  21836.705961      0.026060                    
P 16   3291.810971 -20573.485128  15958.334589   -267.485514                    
V 16   9677.556771  18573.568884  22086.535989     -0.055798                    
P 17 -19450.255527  10654.701638 -14171.047008    382.299371                    
V 17   9603.164978 -16153.269529 -24588.505272      0.047550                    
P 18  25523.020225   5367.323315   5178.495911    342.382081                    
V 18  -6726.069589   2056.289599  30936.405737      0.026021                    
P 19 -19764.372159  15701.055500  -8399.199269    -49.758579                    
V 19   4850.601709  -9283.206476 -29849.126947      0.050241                    
P 20  20132.188426  11162.516938 -13538.185743    525.090296                    
V 20   7779.384901  15385.543737  24089.868296     -0.001795                    
P 21  -4657.326533 -14689.200253 -20943.264452     88.234115                    
V 21  28284.862381  -1055.636720  -4962.467157      0.033082                    
P 22  -9333.327479 -23936.718843  -6866.892822   -695.289234                    
V 22   7691.590497   5722.199093 -29385.058766      0.068280                    
P 23  18454.878670  11157.960350 -15552.319813    116.653595                    
V 23   7804.988111  18170.190536  22295.561568      0.013151                    
P 24   8475.069192  14992.732288 -20541.828706      3.468072                    
V 24 -25541.801842   1370.999707  -9256.068024     -0.005318                    
P 25  17048.313036  17788.800298  10021.052112     63.103970                    
V 25   3927.049112  12603.436558 -28068.822049      0.078059                    
P 26  10641.428745 -12109.449787  21025.649134     32.356820                    
V 26  13994.419216  22998.886146   6409.835017      0.056586                    
P 27  11834.078217 -23269.157697  -3835.891626    -59.327348                    
V 27   4704.926282  -2594.159858  31851.664528     -0.076797                    
P 28 -15282.206569    427.454910 -21130.023894    627.472605                    
V 28  -9928.711958 -26361.523401   6655.876086     -0.052099                    
P 29  12460.214232   7813.499042  22080.284638   -278.894850                    
V 29 -16737.561340  22515.404071   1435.733897     -0.072452                    
P 30 -26462.801415    455.596114  -3334.287178   -371.508304                    
V 30  -4011.851955  -3653.398748  30696.712923     -0.060023                    
P 31  22253.727607  -7438.379844  12806.927684    -94.893070                    
V 31  16022.565620   3265.759443 -25330.350098     -0.023245                    
P 32  19094.040071 -11862.628599 -13923.004564     15.121677                    
V 32  -7541.126724  16420.236777 -24335.991598      0.019019                    
EOF
